{
  "norad_id": 44408,
  "name": "MOMENTUS-X1",
  "history": [
    {
      "epoch": "2026-03-28T20:24:23.979456Z",
      "apogee_km": 391.3845379865734,
      "perigee_km": 381.73767260653494,
      "latitude_deg": -8.84446074774424e-05,
      "longitude_deg": -6.118210220508565,
      "height_km": 386.3020453687187,
      "semi_major_axis_km": 6764.698105296554,
      "eccentricity": 0.00071303,
      "inclination_deg": 97.6879,
      "raan_deg": 126.2465,
      "arg_perigee_deg": 314.8304,
      "mean_anomaly_deg": 45.2371,
      "mean_motion_rev_day": 15.60379128
    },
    {
      "epoch": "2026-03-29T01:01:26.127264Z",
      "apogee_km": 391.3184053124314,
      "perigee_km": 381.70313497195275,
      "latitude_deg": -1.5321270448628852e-05,
      "longitude_deg": -75.35859353780575,
      "height_km": 386.3212318491529,
      "semi_major_axis_km": 6764.647770142192,
      "eccentricity": 0.0007107,
      "inclination_deg": 97.6879,
      "raan_deg": 126.4547,
      "arg_perigee_deg": 313.8589,
      "mean_anomaly_deg": 46.2079,
      "mean_motion_rev_day": 15.60396544
    }
  ]
}